{"type": "FeatureCollection", "features": [{"type": "Feature", "properties": {"norad_id": 28890, "name": "BEIJING 1", "group": "dmc", "lat": -42.154677355642306, "lon": 128.06563392321908, "alt_km": 699.5506231659383, "timestamp": "2025-12-18T23:35:48.713857+00:00", "meta": {"OBJECT_NAME": "BEIJING 1", "OBJECT_ID": "2005-043A", "EPOCH": "2025-12-18T13:56:45.478752", "MEAN_MOTION": 14.63371395, "ECCENTRICITY": 0.00155685, "INCLINATION": 98.2649, "RA_OF_ASC_NODE": 120.1012, "ARG_OF_PERICENTER": 123.9802, "MEAN_ANOMALY": 236.2882, "EPHEMERIS_TYPE": 0, "CLASSIFICATION_TYPE": "U", "NORAD_CAT_ID": 28890, "ELEMENT_SET_NO": 999, "REV_AT_EPOCH": 7423, "BSTAR": 5.7983021e-05, "MEAN_MOTION_DOT": 2.51e-06, "MEAN_MOTION_DDOT": 0}, "tle": {"line1": "1 28890U 05043A   25352.58108193  .00000251  00000+0  57983-4 0  9994", "line2": "2 28890  98.2649 120.1012 0015568 123.9802 236.2882 14.63371395 74233"}}, "geometry": {"type": "Point", "coordinates": [128.06563392321908, -42.154677355642306]}}, {"type": "Feature", "properties": {"norad_id": 33320, "name": "HUANJING 1A (HJ-1A)", "group": "dmc", "lat": 72.62417965960323, "lon": -44.42918522744362, "alt_km": 604.6085809391207, "timestamp": "2025-12-18T23:35:48.713883+00:00", "meta": {"OBJECT_NAME": "HUANJING 1A (HJ-1A)", "OBJECT_ID": "2008-041A", "EPOCH": "2025-12-18T15:10:10.652736", "MEAN_MOTION": 14.83411278, "ECCENTRICITY": 0.00198163, "INCLINATION": 97.6535, "RA_OF_ASC_NODE": 340.6847, "ARG_OF_PERICENTER": 15.7458, "MEAN_ANOMALY": 344.4368, "EPHEMERIS_TYPE": 0, "CLASSIFICATION_TYPE": "U", "NORAD_CAT_ID": 33320, "ELEMENT_SET_NO": 999, "REV_AT_EPOCH": 93163, "BSTAR": 9.165433e-05, "MEAN_MOTION_DOT": 7.03e-06, "MEAN_MOTION_DDOT": 0}, "tle": {"line1": "1 33320U 08041A   25352.63206774  .00000703  00000+0  91654-4 0  9994", "line2": "2 33320  97.6535 340.6847 0019816  15.7458 344.4368 14.83411278931638"}}, "geometry": {"type": "Point", "coordinates": [-44.42918522744362, 72.62417965960323]}}, {"type": "Feature", "properties": {"norad_id": 33321, "name": "HUANJING 1B (HJ-1B)", "group": "dmc", "lat": -75.77689121353893, "lon": 16.676114093132245, "alt_km": 646.130010110669, "timestamp": "2025-12-18T23:35:48.713898+00:00", "meta": {"OBJECT_NAME": "HUANJING 1B (HJ-1B)", "OBJECT_ID": "2008-041B", "EPOCH": "2025-12-18T14:13:52.220928", "MEAN_MOTION": 14.82834759, "ECCENTRICITY": 0.00380793, "INCLINATION": 97.6395, "RA_OF_ASC_NODE": 344.329, "ARG_OF_PERICENTER": 57.1621, "MEAN_ANOMALY": 303.325, "EPHEMERIS_TYPE": 0, "CLASSIFICATION_TYPE": "U", "NORAD_CAT_ID": 33321, "ELEMENT_SET_NO": 999, "REV_AT_EPOCH": 93164, "BSTAR": 8.7575904e-05, "MEAN_MOTION_DOT": 6.66e-06, "MEAN_MOTION_DDOT": 0}, "tle": {"line1": "1 33321U 08041B   25352.59296552  .00000666  00000+0  87576-4 0  9999", "line2": "2 33321  97.6395 344.3290 0038079  57.1621 303.3250 14.82834759931647"}}, "geometry": {"type": "Point", "coordinates": [16.676114093132245, -75.77689121353893]}}, {"type": "Feature", "properties": {"norad_id": 33446, "name": "YAOGAN-4", "group": "dmc", "lat": -10.935903968640611, "lon": 101.48006063423396, "alt_km": 628.394782571062, "timestamp": "2025-12-18T23:35:48.713911+00:00", "meta": {"OBJECT_NAME": "YAOGAN-4", "OBJECT_ID": "2008-061A", "EPOCH": "2025-12-18T13:01:09.446880", "MEAN_MOTION": 14.82698896, "ECCENTRICITY": 0.00132274, "INCLINATION": 97.9189, "RA_OF_ASC_NODE": 282.5848, "ARG_OF_PERICENTER": 302.9674, "MEAN_ANOMALY": 57.0267, "EPHEMERIS_TYPE": 0, "CLASSIFICATION_TYPE": "U", "NORAD_CAT_ID": 33446, "ELEMENT_SET_NO": 999, "REV_AT_EPOCH": 91889, "BSTAR": 0.00013597644, "MEAN_MOTION_DOT": 1.045e-05, "MEAN_MOTION_DDOT": 0}, "tle": {"line1": "1 33446U 08061A   25352.54247045  .00001045  00000+0  13598-3 0  9991", "line2": "2 33446  97.9189 282.5848 0013227 302.9674  57.0267 14.82698896918891"}}, "geometry": {"type": "Point", "coordinates": [101.48006063423396, -10.935903968640611]}}, {"type": "Feature", "properties": {"norad_id": 35681, "name": "DEIMOS-1", "group": "dmc", "lat": 32.36487175581356, "lon": -21.776762699058068, "alt_km": 643.0059235265517, "timestamp": "2025-12-18T23:35:48.713923+00:00", "meta": {"OBJECT_NAME": "DEIMOS-1", "OBJECT_ID": "2009-041A", "EPOCH": "2025-12-18T14:47:28.123872", "MEAN_MOTION": 14.74961023, "ECCENTRICITY": 0.00026337, "INCLINATION": 97.7142, "RA_OF_ASC_NODE": 152.9455, "ARG_OF_PERICENTER": 70.4379, "MEAN_ANOMALY": 289.7115, "EPHEMERIS_TYPE": 0, "CLASSIFICATION_TYPE": "U", "NORAD_CAT_ID": 35681, "ELEMENT_SET_NO": 999, "REV_AT_EPOCH": 88026, "BSTAR": 7.2340544e-05, "MEAN_MOTION_DOT": 4.39e-06, "MEAN_MOTION_DDOT": 0}, "tle": {"line1": "1 35681U 09041A   25352.61629773  .00000439  00000+0  72341-4 0  9991", "line2": "2 35681  97.7142 152.9455 0002633  70.4379 289.7115 14.74961023880264"}}, "geometry": {"type": "Point", "coordinates": [-21.776762699058068, 32.36487175581356]}}, {"type": "Feature", "properties": {"norad_id": 35683, "name": "UK-DMC 2", "group": "dmc", "lat": 2.4533304660868485, "lon": -51.95210470915942, "alt_km": 645.7578568333611, "timestamp": "2025-12-18T23:35:48.713935+00:00", "meta": {"OBJECT_NAME": "UK-DMC 2", "OBJECT_ID": "2009-041C", "EPOCH": "2025-12-18T14:39:30.826944", "MEAN_MOTION": 14.75633998, "ECCENTRICITY": 0.00014791, "INCLINATION": 97.8555, "RA_OF_ASC_NODE": 127.3472, "ARG_OF_PERICENTER": 92.4896, "MEAN_ANOMALY": 267.6483, "EPHEMERIS_TYPE": 0, "CLASSIFICATION_TYPE": "U", "NORAD_CAT_ID": 35683, "ELEMENT_SET_NO": 999, "REV_AT_EPOCH": 87993, "BSTAR": 0.00011892662, "MEAN_MOTION_DOT": 7.63e-06, "MEAN_MOTION_DDOT": 0}, "tle": {"line1": "1 35683U 09041C   25352.61077346  .00000763  00000+0  11893-3 0  9990", "line2": "2 35683  97.8555 127.3472 0001479  92.4896 267.6483 14.75633998879938"}}, "geometry": {"type": "Point", "coordinates": [-51.95210470915942, 2.4533304660868485]}}, {"type": "Feature", "properties": {"norad_id": 40715, "name": "DMC3-FM1", "group": "dmc", "lat": 81.61668734623254, "lon": 153.8310054644778, "alt_km": 607.3347940947533, "timestamp": "2025-12-18T23:35:48.713946+00:00", "meta": {"OBJECT_NAME": "DMC3-FM1", "OBJECT_ID": "2015-032A", "EPOCH": "2025-12-18T15:07:29.957376", "MEAN_MOTION": 14.85449207, "ECCENTRICITY": 0.00043167, "INCLINATION": 97.6693, "RA_OF_ASC_NODE": 219.6079, "ARG_OF_PERICENTER": 298.1356, "MEAN_ANOMALY": 61.9423, "EPHEMERIS_TYPE": 0, "CLASSIFICATION_TYPE": "U", "NORAD_CAT_ID": 40715, "ELEMENT_SET_NO": 999, "REV_AT_EPOCH": 56310, "BSTAR": 3.4758135e-05, "MEAN_MOTION_DOT": 2.48e-06, "MEAN_MOTION_DDOT": 0}, "tle": {"line1": "1 40715U 15032A   25352.63020784  .00000248  00000+0  34758-4 0  9999", "line2": "2 40715  97.6693 219.6079 0004316 298.1356  61.9423 14.85449207563105"}}, "geometry": {"type": "Point", "coordinates": [153.8310054644778, 81.61668734623254]}}, {"type": "Feature", "properties": {"norad_id": 40716, "name": "DMC3-FM2", "group": "dmc", "lat": -33.34012815391288, "lon": -133.51422107092455, "alt_km": 615.2304222787643, "timestamp": "2025-12-18T23:35:48.713958+00:00", "meta": {"OBJECT_NAME": "DMC3-FM2", "OBJECT_ID": "2015-032B", "EPOCH": "2025-12-18T15:39:53.093376", "MEAN_MOTION": 14.85450682, "ECCENTRICITY": 0.00049125, "INCLINATION": 97.675, "RA_OF_ASC_NODE": 221.0774, "ARG_OF_PERICENTER": 303.544, "MEAN_ANOMALY": 56.5306, "EPHEMERIS_TYPE": 0, "CLASSIFICATION_TYPE": "U", "NORAD_CAT_ID": 40716, "ELEMENT_SET_NO": 999, "REV_AT_EPOCH": 56310, "BSTAR": 6.969915e-05, "MEAN_MOTION_DOT": 5.49e-06, "MEAN_MOTION_DDOT": 0}, "tle": {"line1": "1 40716U 15032B   25352.65269784  .00000549  00000+0  69699-4 0  9993", "line2": "2 40716  97.6750 221.0774 0004912 303.5440  56.5306 14.85450682563105"}}, "geometry": {"type": "Point", "coordinates": [-133.51422107092455, -33.34012815391288]}}, {"type": "Feature", "properties": {"norad_id": 40717, "name": "DMC3-FM3", "group": "dmc", "lat": -30.332178123605836, "lon": 38.504603302099966, "alt_km": 618.4209300056509, "timestamp": "2025-12-18T23:35:48.713983+00:00", "meta": {"OBJECT_NAME": "DMC3-FM3", "OBJECT_ID": "2015-032C", "EPOCH": "2025-12-18T14:34:05.544768", "MEAN_MOTION": 14.85440178, "ECCENTRICITY": 0.00042156, "INCLINATION": 97.6805, "RA_OF_ASC_NODE": 222.6705, "ARG_OF_PERICENTER": 305.8054, "MEAN_ANOMALY": 54.2769, "EPHEMERIS_TYPE": 0, "CLASSIFICATION_TYPE": "U", "NORAD_CAT_ID": 40717, "ELEMENT_SET_NO": 999, "REV_AT_EPOCH": 56310, "BSTAR": 0.0001270553, "MEAN_MOTION_DOT": 1.044e-05, "MEAN_MOTION_DDOT": 0}, "tle": {"line1": "1 40717U 15032C   25352.60700862  .00001044  00000+0  12706-3 0  9993", "line2": "2 40717  97.6805 222.6705 0004215 305.8054  54.2769 14.85440178563107"}}, "geometry": {"type": "Point", "coordinates": [38.504603302099966, -30.332178123605836]}}]}